NORAD_CAT_ID,OBJECT_NAME,OBJECT_TYPE,EPOCH,MEAN_MOTION,ECCENTRICITY,INCLINATION,RA_OF_ASC_NODE,ARG_OF_PERICENTER,MEAN_ANOMALY,BSTAR,MEAN_MOTION_DOT,MEAN_MOTION_DDOT,TLE_LINE0,TLE_LINE1,TLE_LINE2,SEMIMAJOR_AXIS,PERIOD,APOGEE,PERIGEE,DECAYED
51853.0,STARLINK-3539,PAYLOAD,2024-05-04 11:53:40,15.08824465,0.0001681,53.2148,165.3101,82.2318,277.8865,-0.0001235,-2.252e-05,0.0,0 STARLINK-3539,1 51853U 22022B   24125.49560284 -.00002252  00000-0 -12350-3 0  9999,2 51853  53.2148 165.3101 0001681  82.2318 277.8865 15.08824465121183,6917.928,95.439,540.956,538.63,0.0
51853.0,STARLINK-3539,PAYLOAD,2024-05-05 11:44:27,15.08835119,0.000166,53.2148,160.8487,83.9189,276.1993,6.0353e-05,6.72e-06,0.0,0 STARLINK-3539,1 51853U 22022B   24126.48920647  .00000672  00000-0  60353-4 0  9991,2 51853  53.2148 160.8487 0001660  83.9189 276.1993 15.08835119121330,6917.895,95.438,540.909,538.612,0.0
51853.0,STARLINK-3539,PAYLOAD,2024-05-05 19:41:23,15.08838932,0.0001663,53.2152,159.3624,87.3454,272.7728,0.00015925,2.247e-05,0.0,0 STARLINK-3539,1 51853U 22022B   24126.82040689  .00002247  00000-0  15925-3 0  9992,2 51853  53.2152 159.3624 0001663  87.3454 272.7728 15.08838932121386,6917.884,95.438,540.899,538.598,0.0
51853.0,STARLINK-3539,PAYLOAD,2024-05-06 11:35:14,15.08853049,0.0001539,53.214,156.3875,88.5145,271.6023,0.00064517,9.998e-05,0.0,0 STARLINK-3539,1 51853U 22022B   24127.48280735  .00009998  00000-0  64517-3 0  9994,2 51853  53.2140 156.3875 0001539  88.5145 271.6023 15.08853049121483,6917.841,95.437,540.77,538.641,0.0
51853.0,STARLINK-3539,PAYLOAD,2024-05-06 19:32:09,15.08861001,0.0001546,53.2138,154.9007,87.7043,272.4126,0.00069855,0.00010853,0.0,0 STARLINK-3539,1 51853U 22022B   24127.81400327  .00010853  00000-0  69855-3 0  9994,2 51853  53.2138 154.9007 0001546  87.7043 272.4126 15.08861001121533,6917.816,95.436,540.751,538.612,0.0
51853.0,STARLINK-3539,PAYLOAD,2024-05-07 08:15:14,15.08873238,0.0001575,53.214,152.5216,87.8469,272.2703,0.00074824,0.00011651,0.0,0 STARLINK-3539,1 51853U 22022B   24128.34391384  .00011651  00000-0  74824-3 0  9994,2 51853  53.2140 152.5216 0001575  87.8469 272.2703 15.08873238121610,6917.779,95.435,540.733,538.554,0.0
51853.0,STARLINK-3539,PAYLOAD,2024-05-08 04:55:14,15.08852765,0.0001513,53.2139,148.6554,105.2931,254.8229,0.00013724,1.898e-05,0.0,0 STARLINK-3539,1 51853U 22022B   24129.20503204  .00001898  00000-0  13724-3 0  9990,2 51853  53.2139 148.6554 0001513 105.2931 254.8229 15.08852765121745,6917.841,95.437,540.753,538.66,0.0
51853.0,STARLINK-3539,PAYLOAD,2024-05-08 08:06:01,15.08847425,0.0001381,53.2137,148.0606,89.7157,270.3994,2.3283e-05,8.3e-07,0.0,0 STARLINK-3539,1 51853U 22022B   24129.33751478  .00000083  00000-0  23283-4 0  9999,2 51853  53.2137 148.0606 0001381  89.7157 270.3994 15.08847425121765,6917.858,95.437,540.678,538.767,0.0
51853.0,STARLINK-3539,PAYLOAD,2024-05-08 17:38:20,15.08845474,0.000133,53.2136,146.277,88.7679,271.3466,-6.873e-07,-2.99e-06,0.0,0 STARLINK-3539,1 51853U 22022B   24129.73495408 -.00000299  00000-0 -68730-6 0  9990,2 51853  53.2136 146.2770 0001330  88.7679 271.3466 15.08845474121822,6917.864,95.437,540.649,538.809,0.0
51853.0,STARLINK-3539,PAYLOAD,2024-05-09 07:56:48,15.08848764,0.0001297,53.2136,143.6004,89.16,270.954,5.4829e-05,5.85e-06,0.0,0 STARLINK-3539,1 51853U 22022B   24130.33111141  .00000585  00000-0  54829-4 0  9995,2 51853  53.2136 143.6004 0001297  89.1600 270.9540 15.08848764121917,6917.854,95.437,540.616,538.821,0.0
51853.0,STARLINK-3539,PAYLOAD,2024-05-09 17:29:06,15.08849212,0.0001277,53.2141,141.8162,91.4325,268.6813,2.5989e-05,1.26e-06,0.0,0 STARLINK-3539,1 51853U 22022B   24130.72855029  .00000126  00000-0  25989-4 0  9994,2 51853  53.2141 141.8162 0001277  91.4325 268.6813 15.08849212121978,6917.852,95.437,540.601,538.834,0.0
51853.0,STARLINK-3539,PAYLOAD,2024-05-10 04:36:49,15.08838074,0.0001329,53.2148,139.7349,90.2337,269.8807,0.00014579,2.033e-05,0.0,0 STARLINK-3539,1 51853U 22022B   24131.19223753  .00002033  00000-0  14579-3 0  9990,2 51853  53.2148 139.7349 0001329  90.2337 269.8807 15.08838074122045,6917.886,95.438,540.671,538.832,0.0
51853.0,STARLINK-3539,PAYLOAD,2024-05-10 10:58:21,15.08840613,0.0001343,53.2148,138.5454,89.7164,270.3982,0.0001587,2.239e-05,0.0,0 STARLINK-3539,1 51853U 22022B   24131.45719668  .00002239  00000-0  15870-3 0  9997,2 51853  53.2148 138.5454 0001343  89.7164 270.3982 15.08840613122083,6917.879,95.438,540.673,538.814,0.0
51853.0,STARLINK-3539,PAYLOAD,2024-05-10 17:19:54,15.08837435,0.0001297,53.214,137.3555,89.9188,270.1953,6.8343e-05,8e-06,0.0,0 STARLINK-3539,1 51853U 22022B   24131.72215850  .00000800  00000-0  68343-4 0  9997,2 51853  53.2140 137.3555 0001297  89.9188 270.1953 15.08837435122129,6917.888,95.438,540.65,538.856,0.0
51853.0,STARLINK-3539,PAYLOAD,2024-05-11 09:13:45,15.08864781,0.0001395,53.2147,134.3821,89.9714,270.1438,0.00050575,7.776e-05,0.0,0 STARLINK-3539,1 51853U 22022B   24132.38455131  .00007776  00000-0  50575-3 0  9994,2 51853  53.2147 134.3821 0001395  89.9714 270.1438 15.08864781122226,6917.805,95.436,540.635,538.705,0.0
51853.0,STARLINK-3539,PAYLOAD,2024-05-11 17:10:40,15.08854932,0.0001398,53.215,132.8953,103.3977,256.7171,0.00026344,3.909e-05,0.0,0 STARLINK-3539,1 51853U 22022B   24132.71574792  .00003909  00000-0  26344-3 0  9997,2 51853  53.2150 132.8953 0001398 103.3977 256.7171 15.08854932122270,6917.835,95.437,540.667,538.733,0.0
51853.0,STARLINK-3539,PAYLOAD,2024-05-12 04:18:22,15.08842238,0.0001369,53.2136,130.813,109.4435,250.6705,8.5101e-05,1.067e-05,0.0,0 STARLINK-3539,1 51853U 22022B   24133.17943218  .00001067  00000-0  85101-4 0  9991,2 51853  53.2136 130.8130 0001369 109.4435 250.6705 15.08842238122343,6917.874,95.437,540.686,538.791,0.0
51853.0,STARLINK-3539,PAYLOAD,2024-05-12 09:04:34,15.08794239,0.0001294,53.2143,129.9214,86.9897,273.1243,-0.00078443,-0.00012735,0.0,0 STARLINK-3539,1 51853U 22022B   24133.37817427 -.00012735  00000-0 -78443-3 0  9991,2 51853  53.2143 129.9214 0001294  86.9897 273.1243 15.08794239122378,6918.02,95.44,540.78,538.99,0.0
51853.0,STARLINK-3539,PAYLOAD,2024-05-12 17:01:30,15.08803559,0.0001286,53.2158,128.4347,86.6263,273.4876,-0.00046321,-7.645e-05,0.0,0 STARLINK-3539,1 51853U 22022B   24133.70937815 -.00007645  00000-0 -46321-3 0  9996,2 51853  53.2158 128.4347 0001286  86.6263 273.4876 15.08803559122427,6917.992,95.44,540.746,538.967,0.0
51853.0,STARLINK-3539,PAYLOAD,2024-05-13 08:55:22,15.08813569,0.000137,53.2144,125.4632,75.2952,284.8192,7.5605e-05,9.15e-06,0.0,0 STARLINK-3539,1 51853U 22022B   24134.37178809  .00000915  00000-0  75605-4 0  9999,2 51853  53.2144 125.4632 0001370  75.2952 284.8192 15.08813569122529,6917.961,95.439,540.774,538.878,0.0
51853.0,STARLINK-3539,PAYLOAD,2024-05-13 16:52:18,15.0882513,0.000147,53.2151,123.9777,71.9254,288.1898,0.0004978,7.64e-05,0.0,0 STARLINK-3539,1 51853U 22022B   24134.70299126  .00007640  00000-0  49780-3 0  9998,2 51853  53.2151 123.9777 0001470  71.9254 288.1898 15.08825130122571,6917.926,95.438,540.808,538.774,0.0
51853.0,STARLINK-3539,PAYLOAD,2024-05-14 05:35:23,15.08852302,0.000136,53.2153,121.597,74.231,285.8832,0.0012015,0.00018892,0.0,0 STARLINK-3539,1 51853U 22022B   24135.23291181  .00018892  00000-0  12015-2 0  9991,2 51853  53.2153 121.5970 0001360  74.2310 285.8832 15.08852302122651,6917.843,95.437,540.649,538.767,0.0
51853.0,STARLINK-3539,PAYLOAD,2024-05-14 23:04:37,15.08875339,0.0001407,53.2152,118.3252,77.8924,282.2226,0.0010381,0.00016288,0.0,0 STARLINK-3539,1 51853U 22022B   24135.96154003  .00016288  00000-0  10381-2 0  9993,2 51853  53.2152 118.3252 0001407  77.8924 282.2226 15.08875339122764,6917.772,95.435,540.611,538.664,0.0
51853.0,STARLINK-3539,PAYLOAD,2024-05-15 08:36:55,15.08889358,0.0001431,53.2154,116.5405,80.3631,279.7522,0.0012853,0.00020254,0.0,0 STARLINK-3539,1 51853U 22022B   24136.35897025  .00020254  00000-0  12853-2 0  9999,2 51853  53.2154 116.5405 0001431  80.3631 279.7522 15.08889358122820,6917.73,95.434,540.584,538.605,0.0
51853.0,STARLINK-3539,PAYLOAD,2024-05-15 22:55:22,15.08866663,0.0001688,53.2156,113.863,81.1024,279.0159,0.00034557,5.22e-05,0.0,0 STARLINK-3539,1 51853U 22022B   24136.95512571  .00005220  00000-0  34557-3 0  9997,2 51853  53.2156 113.8630 0001688  81.1024 279.0159 15.08866663122914,6917.799,95.436,540.832,538.496,0.0
51853.0,STARLINK-3539,PAYLOAD,2024-05-16 05:16:55,15.08866391,0.0001337,53.2155,112.6737,88.1191,271.9954,0.00028428,4.242e-05,0.0,0 STARLINK-3539,1 51853U 22022B   24137.22008182  .00004242  00000-0  28428-3 0  9999,2 51853  53.2155 112.6737 0001337  88.1191 271.9954 15.08866391122957,6917.8,95.436,540.59,538.74,0.0
51853.0,STARLINK-3539,PAYLOAD,2024-05-16 22:46:09,15.08856026,0.000151,53.2156,109.4017,87.137,272.9795,0.00028731,4.289e-05,0.0,0 STARLINK-3539,1 51853U 22022B   24137.94871879  .00004289  00000-0  28731-3 0  9997,2 51853  53.2156 109.4017 0001510  87.1370 272.9795 15.08856026123065,6917.831,95.437,540.741,538.652,0.0
51853.0,STARLINK-3539,PAYLOAD,2024-05-17 05:07:41,15.0885443,0.0001203,53.2155,108.213,90.6745,269.4385,0.00036832,5.581e-05,0.0,0 STARLINK-3539,1 51853U 22022B   24138.21367774  .00005581  00000-0  36832-3 0  9999,2 51853  53.2155 108.2130 0001203  90.6745 269.4385 15.08854430123109,6917.836,95.437,540.533,538.869,0.0
51853.0,STARLINK-3539,PAYLOAD,2024-05-17 14:40:00,15.08847281,8.98e-05,53.2146,106.4255,65.7212,294.3874,0.00031954,4.802e-05,0.0,0 STARLINK-3539,1 51853U 22022B   24138.61111751  .00004802  00000-0  31954-3 0  9990,2 51853  53.2146 106.4255 0000898  65.7212 294.3874 15.08847281123160,6917.858,95.437,540.344,539.102,0.0
51853.0,STARLINK-3539,PAYLOAD,2024-05-18 04:58:29,15.08835762,0.000143,53.2161,103.7582,108.0568,252.058,-3.8806e-05,-9.05e-06,0.0,0 STARLINK-3539,1 51853U 22022B   24139.20728700 -.00000905  00000-0 -38806-4 0  9990,2 51853  53.2161 103.7582 0001430 108.0568 252.0580 15.08835762123254,6917.893,95.438,540.748,538.769,0.0
